[{"OBJECT_NAME":"ORBCOMM FM16","OBJECT_ID":"1998-046E","EPOCH":"2026-03-28T23:04:20.982144","MEAN_MOTION":14.39887234,"ECCENTRICITY":0.0003805,"INCLINATION":44.9929,"RA_OF_ASC_NODE":259.467,"ARG_OF_PERICENTER":283.5105,"MEAN_ANOMALY":76.532,"EPHEMERIS_TYPE":0,"CLASSIFICATION_TYPE":"U","NORAD_CAT_ID":25417,"ELEMENT_SET_NO":999,"REV_AT_EPOCH":44528,"BSTAR":0.00047826,"MEAN_MOTION_DOT":1.374e-5,"MEAN_MOTION_DDOT":0},{"OBJECT_NAME":"ORBCOMM FM15","OBJECT_ID":"1998-046F","EPOCH":"2026-03-28T19:15:08.197344","MEAN_MOTION":14.39508054,"ECCENTRICITY":0.00034468,"INCLINATION":44.9964,"RA_OF_ASC_NODE":266.2493,"ARG_OF_PERICENTER":284.2726,"MEAN_ANOMALY":75.7739,"EPHEMERIS_TYPE":0,"CLASSIFICATION_TYPE":"U","NORAD_CAT_ID":25418,"ELEMENT_SET_NO":999,"REV_AT_EPOCH":44524,"BSTAR":0.00041036009,"MEAN_MOTION_DOT":1.149e-5,"MEAN_MOTION_DDOT":0},{"OBJECT_NAME":"ORBCOMM FM14","OBJECT_ID":"1998-046G","EPOCH":"2026-03-28T21:06:16.786944","MEAN_MOTION":14.39948304,"ECCENTRICITY":0.0002372,"INCLINATION":44.9949,"RA_OF_ASC_NODE":263.2123,"ARG_OF_PERICENTER":271.035,"MEAN_ANOMALY":89.0227,"EPHEMERIS_TYPE":0,"CLASSIFICATION_TYPE":"U","NORAD_CAT_ID":25419,"ELEMENT_SET_NO":999,"REV_AT_EPOCH":44523,"BSTAR":0.00043717,"MEAN_MOTION_DOT":1.246e-5,"MEAN_MOTION_DDOT":0},{"OBJECT_NAME":"ORBCOMM FM13","OBJECT_ID":"1998-046H","EPOCH":"2026-03-28T18:34:21.806400","MEAN_MOTION":14.38489395,"ECCENTRICITY":0.00045555,"INCLINATION":44.9966,"RA_OF_ASC_NODE":274.6782,"ARG_OF_PERICENTER":262.9602,"MEAN_ANOMALY":97.0728,"EPHEMERIS_TYPE":0,"CLASSIFICATION_TYPE":"U","NORAD_CAT_ID":25420,"ELEMENT_SET_NO":999,"REV_AT_EPOCH":44420,"BSTAR":0.00035589766,"MEAN_MOTION_DOT":9.55e-6,"MEAN_MOTION_DDOT":0},{"OBJECT_NAME":"ORBCOMM FM21","OBJECT_ID":"1998-053A","EPOCH":"2026-03-29T03:12:16.498656","MEAN_MOTION":14.38053078,"ECCENTRICITY":0.0001235,"INCLINATION":45.0099,"RA_OF_ASC_NODE":359.3566,"ARG_OF_PERICENTER":277.937,"MEAN_ANOMALY":82.1338,"EPHEMERIS_TYPE":0,"CLASSIFICATION_TYPE":"U","NORAD_CAT_ID":25475,"ELEMENT_SET_NO":999,"REV_AT_EPOCH":43825,"BSTAR":0.00033737,"MEAN_MOTION_DOT":8.89e-6,"MEAN_MOTION_DDOT":0},{"OBJECT_NAME":"ORBCOMM FM22","OBJECT_ID":"1998-053B","EPOCH":"2026-03-29T00:20:40.233120","MEAN_MOTION":14.39294073,"ECCENTRICITY":0.0002386,"INCLINATION":45.0093,"RA_OF_ASC_NODE":352.2619,"ARG_OF_PERICENTER":238.4927,"MEAN_ANOMALY":121.5689,"EPHEMERIS_TYPE":0,"CLASSIFICATION_TYPE":"U","NORAD_CAT_ID":25476,"ELEMENT_SET_NO":999,"REV_AT_EPOCH":43829,"BSTAR":0.00040275,"MEAN_MOTION_DOT":1.119e-5,"MEAN_MOTION_DDOT":0},{"OBJECT_NAME":"ORBCOMM FM23","OBJECT_ID":"1998-053C","EPOCH":"2026-03-29T02:09:26.394048","MEAN_MOTION":14.38321883,"ECCENTRICITY":0.0001764,"INCLINATION":45.0099,"RA_OF_ASC_NODE":1.1954,"ARG_OF_PERICENTER":246.0444,"MEAN_ANOMALY":114.022,"EPHEMERIS_TYPE":0,"CLASSIFICATION_TYPE":"U","NORAD_CAT_ID":25477,"ELEMENT_SET_NO":999,"REV_AT_EPOCH":43840,"BSTAR":0.00038874,"MEAN_MOTION_DOT":1.052e-5,"MEAN_MOTION_DDOT":0},{"OBJECT_NAME":"ORBCOMM FM24","OBJECT_ID":"1998-053D","EPOCH":"2026-03-29T02:47:01.071168","MEAN_MOTION":14.38974486,"ECCENTRICITY":0.0001675,"INCLINATION":45.0096,"RA_OF_ASC_NODE":357.2129,"ARG_OF_PERICENTER":258.5196,"MEAN_ANOMALY":101.5465,"EPHEMERIS_TYPE":0,"CLASSIFICATION_TYPE":"U","NORAD_CAT_ID":25478,"ELEMENT_SET_NO":999,"REV_AT_EPOCH":43847,"BSTAR":0.00039288,"MEAN_MOTION_DOT":1.081e-5,"MEAN_MOTION_DDOT":0},{"OBJECT_NAME":"ORBCOMM FM25","OBJECT_ID":"1998-053E","EPOCH":"2026-03-29T00:34:43.229280","MEAN_MOTION":14.3893558,"ECCENTRICITY":0.000404,"INCLINATION":45.0087,"RA_OF_ASC_NODE":355.9679,"ARG_OF_PERICENTER":251.5951,"MEAN_ANOMALY":108.4459,"EPHEMERIS_TYPE":0,"CLASSIFICATION_TYPE":"U","NORAD_CAT_ID":25479,"ELEMENT_SET_NO":999,"REV_AT_EPOCH":43875,"BSTAR":0.00042297,"MEAN_MOTION_DOT":1.173e-5,"MEAN_MOTION_DDOT":0},{"OBJECT_NAME":"ORBCOMM FM26","OBJECT_ID":"1998-053F","EPOCH":"2026-03-29T03:58:00.466752","MEAN_MOTION":14.37860584,"ECCENTRICITY":0.0006159,"INCLINATION":45.0084,"RA_OF_ASC_NODE":353.9487,"ARG_OF_PERICENTER":263.4132,"MEAN_ANOMALY":96.6015,"EPHEMERIS_TYPE":0,"CLASSIFICATION_TYPE":"U","NORAD_CAT_ID":25480,"ELEMENT_SET_NO":999,"REV_AT_EPOCH":43865,"BSTAR":0.00039309,"MEAN_MOTION_DOT":1.055e-5,"MEAN_MOTION_DDOT":0},{"OBJECT_NAME":"ORBCOMM FM27","OBJECT_ID":"1998-053G","EPOCH":"2026-03-29T00:06:54.594720","MEAN_MOTION":14.38979186,"ECCENTRICITY":0.0001182,"INCLINATION":45.007,"RA_OF_ASC_NODE":356.1461,"ARG_OF_PERICENTER":317.8185,"MEAN_ANOMALY":42.2572,"EPHEMERIS_TYPE":0,"CLASSIFICATION_TYPE":"U","NORAD_CAT_ID":25481,"ELEMENT_SET_NO":999,"REV_AT_EPOCH":43868,"BSTAR":0.00039699,"MEAN_MOTION_DOT":1.093e-5,"MEAN_MOTION_DDOT":0},{"OBJECT_NAME":"ORBCOMM FM28","OBJECT_ID":"1998-053H","EPOCH":"2026-03-29T00:20:32.443296","MEAN_MOTION":14.39067619,"ECCENTRICITY":0.0003949,"INCLINATION":45.0052,"RA_OF_ASC_NODE":293.2919,"ARG_OF_PERICENTER":292.2318,"MEAN_ANOMALY":67.8112,"EPHEMERIS_TYPE":0,"CLASSIFICATION_TYPE":"U","NORAD_CAT_ID":25482,"ELEMENT_SET_NO":999,"REV_AT_EPOCH":43937,"BSTAR":0.00033649,"MEAN_MOTION_DOT":9.07e-6,"MEAN_MOTION_DDOT":0},{"OBJECT_NAME":"ORBCOMM FM30","OBJECT_ID":"1999-065A","EPOCH":"2026-03-28T23:36:59.563872","MEAN_MOTION":14.38021602,"ECCENTRICITY":0.0005396,"INCLINATION":45.0308,"RA_OF_ASC_NODE":180.9224,"ARG_OF_PERICENTER":340.5015,"MEAN_ANOMALY":19.5627,"EPHEMERIS_TYPE":0,"CLASSIFICATION_TYPE":"U","NORAD_CAT_ID":25980,"ELEMENT_SET_NO":999,"REV_AT_EPOCH":37543,"BSTAR":0.00033539,"MEAN_MOTION_DOT":8.82e-6,"MEAN_MOTION_DDOT":0},{"OBJECT_NAME":"ORBCOMM FM31","OBJECT_ID":"1999-065B","EPOCH":"2026-03-28T23:18:33.388128","MEAN_MOTION":14.37941486,"ECCENTRICITY":0.0002385,"INCLINATION":45.0221,"RA_OF_ASC_NODE":174.4221,"ARG_OF_PERICENTER":358.8628,"MEAN_ANOMALY":1.2214,"EPHEMERIS_TYPE":0,"CLASSIFICATION_TYPE":"U","NORAD_CAT_ID":25981,"ELEMENT_SET_NO":999,"REV_AT_EPOCH":37498,"BSTAR":0.00029752,"MEAN_MOTION_DOT":7.65e-6,"MEAN_MOTION_DDOT":0},{"OBJECT_NAME":"ORBCOMM FM32","OBJECT_ID":"1999-065C","EPOCH":"2026-03-28T23:54:53.658432","MEAN_MOTION":14.37004823,"ECCENTRICITY":0.0004469,"INCLINATION":45.0149,"RA_OF_ASC_NODE":192.7769,"ARG_OF_PERICENTER":7.8456,"MEAN_ANOMALY":352.2461,"EPHEMERIS_TYPE":0,"CLASSIFICATION_TYPE":"U","NORAD_CAT_ID":25982,"ELEMENT_SET_NO":999,"REV_AT_EPOCH":37555,"BSTAR":0.00034685,"MEAN_MOTION_DOT":8.96e-6,"MEAN_MOTION_DDOT":0},{"OBJECT_NAME":"ORBCOMM FM33","OBJECT_ID":"1999-065D","EPOCH":"2026-03-28T22:43:52.103712","MEAN_MOTION":14.4082903,"ECCENTRICITY":0.0007115,"INCLINATION":45.0278,"RA_OF_ASC_NODE":84.2474,"ARG_OF_PERICENTER":41.7874,"MEAN_ANOMALY":318.3518,"EPHEMERIS_TYPE":0,"CLASSIFICATION_TYPE":"U","NORAD_CAT_ID":25983,"ELEMENT_SET_NO":999,"REV_AT_EPOCH":37712,"BSTAR":0.00036531,"MEAN_MOTION_DOT":1.038e-5,"MEAN_MOTION_DDOT":0},{"OBJECT_NAME":"ORBCOMM FM36","OBJECT_ID":"1999-065E","EPOCH":"2026-03-29T04:57:38.974176","MEAN_MOTION":14.39034277,"ECCENTRICITY":0.0004204,"INCLINATION":45.0382,"RA_OF_ASC_NODE":179.2319,"ARG_OF_PERICENTER":268.9357,"MEAN_ANOMALY":91.101,"EPHEMERIS_TYPE":0,"CLASSIFICATION_TYPE":"U","NORAD_CAT_ID":25984,"ELEMENT_SET_NO":999,"REV_AT_EPOCH":37546,"BSTAR":0.0005111,"MEAN_MOTION_DOT":1.451e-5,"MEAN_MOTION_DDOT":0}]
