ORBCOMM FM16            
1 25417U 98046E   26087.96135396  .00001374  00000+0  47826-3 0  9995
2 25417  44.9929 259.4670 0003805 283.5105  76.5320 14.39887234445286
ORBCOMM FM15            
1 25418U 98046F   26087.80217821  .00001149  00000+0  41036-3 0  9990
2 25418  44.9964 266.2493 0003446 284.2726  75.7739 14.39508054445244
ORBCOMM FM14            
1 25419U 98046G   26087.87936096  .00001246  00000+0  43717-3 0  9996
2 25419  44.9949 263.2123 0002372 271.0350  89.0227 14.39948304445234
ORBCOMM FM13            
1 25420U 98046H   26087.77386350  .00000955  00000+0  35590-3 0  9995
2 25420  44.9966 274.6782 0004555 262.9602  97.0728 14.38489395444206
ORBCOMM FM21            
1 25475U 98053A   26088.13352429  .00000889  00000+0  33737-3 0  9991
2 25475  45.0099 359.3566 0001235 277.9370  82.1338 14.38053078438251
ORBCOMM FM22            
1 25476U 98053B   26088.01435455  .00001119  00000+0  40275-3 0  9992
2 25476  45.0093 352.2619 0002386 238.4927 121.5689 14.39294073438299
ORBCOMM FM23            
1 25477U 98053C   26088.08988882  .00001052  00000+0  38874-3 0  9995
2 25477  45.0099   1.1954 0001764 246.0444 114.0220 14.38321883438406
ORBCOMM FM24            
1 25478U 98053D   26088.11598462  .00001081  00000+0  39288-3 0  9993
2 25478  45.0096 357.2129 0001675 258.5196 101.5465 14.38974486438478
ORBCOMM FM25            
1 25479U 98053E   26088.02411145  .00001173  00000+0  42297-3 0  9992
2 25479  45.0087 355.9679 0004040 251.5951 108.4459 14.38935580438757
ORBCOMM FM26            
1 25480U 98053F   26088.16528318  .00001055  00000+0  39309-3 0  9999
2 25480  45.0084 353.9487 0006159 263.4132  96.6015 14.37860584438652
ORBCOMM FM27            
1 25481U 98053G   26088.00479855  .00001093  00000+0  39699-3 0  9998
2 25481  45.0070 356.1461 0001182 317.8185  42.2572 14.38979186438686
ORBCOMM FM28            
1 25482U 98053H   26088.01426439  .00000907  00000+0  33649-3 0  9992
2 25482  45.0052 293.2919 0003949 292.2318  67.8112 14.39067619439373
ORBCOMM FM30            
1 25980U 99065A   26087.98402273  .00000882  00000+0  33539-3 0  9994
2 25980  45.0308 180.9224 0005396 340.5015  19.5627 14.38021602375432
ORBCOMM FM31            
1 25981U 99065B   26087.97121977  .00000765  00000+0  29752-3 0  9995
2 25981  45.0221 174.4221 0002385 358.8628   1.2214 14.37941486374988
ORBCOMM FM32            
1 25982U 99065C   26087.99645438  .00000896  00000+0  34685-3 0  9997
2 25982  45.0149 192.7769 0004469   7.8456 352.2461 14.37004823375555
ORBCOMM FM33            
1 25983U 99065D   26087.94713083  .00001038  00000+0  36531-3 0  9996
2 25983  45.0278  84.2474 0007115  41.7874 318.3518 14.40829030377129
ORBCOMM FM36            
1 25984U 99065E   26088.20670109  .00001451  00000+0  51110-3 0  9997
2 25984  45.0382 179.2319 0004204 268.9357  91.1010 14.39034277375461
